{"type": "FeatureCollection", "features": [ {"type": "Feature", "properties": {"norad_id": 33153, "name": "INTELSAT 25 (IS-25)", "group": "intelsat", "lat": 1.8240501032544607, "lon": -151.91354923078268, "alt_km": 35775.45576880172, "timestamp": "2025-12-22T09:53:37.073956+00:00", "meta": {"OBJECT_NAME": "INTELSAT 25 (IS-25)", "OBJECT_ID": "2008-034A", "EPOCH": "2025-12-21T18:11:05.025984", "MEAN_MOTION": 1.00273075, "ECCENTRICITY": 0.0004784, "INCLINATION": 2.2495, "RA_OF_ASC_NODE": 82.5539, "ARG_OF_PERICENTER": 185.6657, "MEAN_ANOMALY": 63.6158, "EPHEMERIS_TYPE": 0, "CLASSIFICATION_TYPE": "U", "NORAD_CAT_ID": 33153, "ELEMENT_SET_NO": 999, "REV_AT_EPOCH": 6391, "BSTAR": 0, "MEAN_MOTION_DOT": -2.03e-06, "MEAN_MOTION_DDOT": 0}, "tle": {"line1": "1 33153U 08034A   25355.75769706 -.00000203  00000+0  00000+0 0  9991", "line2": "2 33153   2.2495  82.5539 0004784 185.6657  63.6158  1.00273075 63915"}}, "geometry": {"type": "Point", "coordinates": [-151.91354923078268, 1.8240501032544607]}}, {"type": "Feature", "properties": {"norad_id": 33376, "name": "GALAXY 19 (G-19)", "group": "intelsat", "lat": -0.017429821980691648, "lon": 142.58970106978114, "alt_km": 35793.94207383998, "timestamp": "2025-12-22T09:53:37.073969+00:00", "meta": {"OBJECT_NAME": "GALAXY 19 (G-19)", "OBJECT_ID": "2008-045A", "EPOCH": "2025-12-21T21:17:47.584320", "MEAN_MOTION": 1.00270959, "ECCENTRICITY": 0.0002568, "INCLINATION": 0.0489, "RA_OF_ASC_NODE": 266.5576, "ARG_OF_PERICENTER": 10.4377, "MEAN_ANOMALY": 36.151, "EPHEMERIS_TYPE": 0, "CLASSIFICATION_TYPE": "U", "NORAD_CAT_ID": 33376, "ELEMENT_SET_NO": 999, "REV_AT_EPOCH": 6312, "BSTAR": 0, "MEAN_MOTION_DOT": -1.17e-06, "MEAN_MOTION_DDOT": 0}, "tle": {"line1": "1 33376U 08045A   25355.88735630 -.00000117  00000+0  00000+0 0  9997", "line2": "2 33376   0.0489 266.5576 0002568  10.4377  36.1510  1.00270959 63126"}}, "geometry": {"type": "Point", "coordinates": [142.58970106978114, -0.017429821980691648]}}, {"type": "Feature", "properties": {"norad_id": 35493, "name": "FM-5", "group": "intelsat", "lat": -0.005470495421225834, "lon": 153.476832152286, "alt_km": 35781.160252940266, "timestamp": "2025-12-22T09:53:37.073982+00:00", "meta": {"OBJECT_NAME": "FM-5", "OBJECT_ID": "2009-034A", "EPOCH": "2025-12-21T19:38:11.685120", "MEAN_MOTION": 1.00270992, "ECCENTRICITY": 0.0001242, "INCLINATION": 0.0256, "RA_OF_ASC_NODE": 287.4791, "ARG_OF_PERICENTER": 232.5612, "MEAN_ANOMALY": 139.006, "EPHEMERIS_TYPE": 0, "CLASSIFICATION_TYPE": "U", "NORAD_CAT_ID": 35493, "ELEMENT_SET_NO": 999, "REV_AT_EPOCH": 4486, "BSTAR": 0, "MEAN_MOTION_DOT": -1.78e-06, "MEAN_MOTION_DDOT": 0}, "tle": {"line1": "1 35493U 09034A   25355.81819080 -.00000178  00000+0  00000+0 0  9990", "line2": "2 35493   0.0256 287.4791 0001242 232.5612 139.0060  1.00270992 44868"}}, "geometry": {"type": "Point", "coordinates": [153.476832152286, -0.005470495421225834]}}, {"type": "Feature", "properties": {"norad_id": 36097, "name": "INTELSAT 14 (IS-14)", "group": "intelsat", "lat": 0.0014027069132780182, "lon": -165.4125732584185, "alt_km": 35786.24213072253, "timestamp": "2025-12-22T09:53:37.073994+00:00", "meta": {"OBJECT_NAME": "INTELSAT 14 (IS-14)", "OBJECT_ID": "2009-064A", "EPOCH": "2025-12-22T02:40:45.871392", "MEAN_MOTION": 1.00270203, "ECCENTRICITY": 0.0002504, "INCLINATION": 0.0086, "RA_OF_ASC_NODE": 26.5169, "ARG_OF_PERICENTER": 256.4707, "MEAN_ANOMALY": 163.1282, "EPHEMERIS_TYPE": 0, "CLASSIFICATION_TYPE": "U", "NORAD_CAT_ID": 36097, "ELEMENT_SET_NO": 999, "REV_AT_EPOCH": 5883, "BSTAR": 0, "MEAN_MOTION_DOT": -2.51e-06, "MEAN_MOTION_DDOT": 0}, "tle": {"line1": "1 36097U 09064A   25356.11164203 -.00000251  00000+0  00000+0 0  9990", "line2": "2 36097   0.0086  26.5169 0002504 256.4707 163.1282  1.00270203 58834"}}, "geometry": {"type": "Point", "coordinates": [-165.4125732584185, 0.0014027069132780182]}}, {"type": "Feature", "properties": {"norad_id": 36106, "name": "INTELSAT 15 (IS-15)", "group": "intelsat", "lat": -0.025040340217944063, "lon": -35.20621225504984, "alt_km": 35779.36471131196, "timestamp": "2025-12-22T09:53:37.074006+00:00", "meta": {"OBJECT_NAME": "INTELSAT 15 (IS-15)", "OBJECT_ID": "2009-067A", "EPOCH": "2025-12-21T22:09:42.611040", "MEAN_MOTION": 1.00271577, "ECCENTRICITY": 0.0002187, "INCLINATION": 0.0182, "RA_OF_ASC_NODE": 356.5187, "ARG_OF_PERICENTER": 285.6468, "MEAN_ANOMALY": 226.1604, "EPHEMERIS_TYPE": 0, "CLASSIFICATION_TYPE": "U", "NORAD_CAT_ID": 36106, "ELEMENT_SET_NO": 999, "REV_AT_EPOCH": 3945, "BSTAR": 0, "MEAN_MOTION_DOT": -1.63e-06, "MEAN_MOTION_DDOT": 0}, "tle": {"line1": "1 36106U 09067A   25355.92340985 -.00000163  00000+0  00000+0 0  9997", "line2": "2 36106   0.0182 356.5187 0002187 285.6468 226.1604  1.00271577 39453"}}, "geometry": {"type": "Point", "coordinates": [-35.20621225504984, -0.025040340217944063]}}, {"type": "Feature", "properties": {"norad_id": 36131, "name": "DIRECTV 12", "group": "intelsat", "lat": 0.014635953084523397, "lon": 136.9048764456964, "alt_km": 35787.465630154395, "timestamp": "2025-12-22T09:53:37.074018+00:00", "meta": {"OBJECT_NAME": "DIRECTV 12", "OBJECT_ID": "2009-075A", "EPOCH": "2025-12-22T00:41:35.567232", "MEAN_MOTION": 1.00271569, "ECCENTRICITY": 3.79e-05, "INCLINATION": 0.0143, "RA_OF_ASC_NODE": 95.5691, "ARG_OF_PERICENTER": 255.4203, "MEAN_ANOMALY": 7.5366, "EPHEMERIS_TYPE": 0, "CLASSIFICATION_TYPE": "U", "NORAD_CAT_ID": 36131, "ELEMENT_SET_NO": 999, "REV_AT_EPOCH": 4477, "BSTAR": 0, "MEAN_MOTION_DOT": -8.2e-07, "MEAN_MOTION_DDOT": 0}, "tle": {"line1": "1 36131U 09075A   25356.02888388 -.00000082  00000+0  00000+0 0  9990", "line2": "2 36131   0.0143  95.5691 0000379 255.4203   7.5366  1.00271569 44779"}}, "geometry": {"type": "Point", "coordinates": [136.9048764456964, 0.014635953084523397]}}, {"type": "Feature", "properties": {"norad_id": 36397, "name": "INTELSAT 16 (IS-16)", "group": "intelsat", "lat": -0.0030917407965660713, "lon": 163.4010606673777, "alt_km": 35788.854114547394, "timestamp": "2025-12-22T09:53:37.074029+00:00", "meta": {"OBJECT_NAME": "INTELSAT 16 (IS-16)", "OBJECT_ID": "2010-006A", "EPOCH": "2025-12-22T02:31:54.220224", "MEAN_MOTION": 1.00270697, "ECCENTRICITY": 0.000183, "INCLINATION": 0.0156, "RA_OF_ASC_NODE": 316.6614, "ARG_OF_PERICENTER": 315.0478, "MEAN_ANOMALY": 140.9897, "EPHEMERIS_TYPE": 0, "CLASSIFICATION_TYPE": "U", "NORAD_CAT_ID": 36397, "ELEMENT_SET_NO": 999, "REV_AT_EPOCH": 5787, "BSTAR": 0, "MEAN_MOTION_DOT": -2.23e-06, "MEAN_MOTION_DDOT": 0}, "tle": {"line1": "1 36397U 10006A   25356.10548866 -.00000223  00000+0  00000+0 0  9990", "line2": "2 36397   0.0156 316.6614 0001830 315.0478 140.9897  1.00270697 57876"}}, "geometry": {"type": "Point", "coordinates": [163.4010606673777, -0.0030917407965660713]}}, {"type": "Feature", "properties": {"norad_id": 37185, "name": "XM-5", "group": "intelsat", "lat": -0.013355481123293612, "lon": 124.42055530818585, "alt_km": 35776.93422823454, "timestamp": "2025-12-22T09:53:37.074041+00:00", "meta": {"OBJECT_NAME": "XM-5", "OBJECT_ID": "2010-053A", "EPOCH": "2025-12-22T01:52:21.785952", "MEAN_MOTION": 1.002727, "ECCENTRICITY": 0.0002258, "INCLINATION": 0.0685, "RA_OF_ASC_NODE": 270.6816, "ARG_OF_PERICENTER": 234.8564, "MEAN_ANOMALY": 218.255, "EPHEMERIS_TYPE": 0, "CLASSIFICATION_TYPE": "U", "NORAD_CAT_ID": 37185, "ELEMENT_SET_NO": 999, "REV_AT_EPOCH": 5570, "BSTAR": 0, "MEAN_MOTION_DOT": -1e-08, "MEAN_MOTION_DDOT": 0}, "tle": {"line1": "1 37185U 10053A   25356.07802993 -.00000001  00000+0  00000+0 0  9992", "line2": "2 37185   0.0685 270.6816 0002258 234.8564 218.2550  1.00272700 55703"}}, "geometry": {"type": "Point", "coordinates": [124.42055530818585, -0.013355481123293612]}}, {"type": "Feature", "properties": {"norad_id": 37238, "name": "INTELSAT 17 (IS-17)", "group": "intelsat", "lat": -0.00873592348353585, "lon": -54.383033546822816, "alt_km": 35776.20885111313, "timestamp": "2025-12-22T09:53:37.074061+00:00", "meta": {"OBJECT_NAME": "INTELSAT 17 (IS-17)", "OBJECT_ID": "2010-065B", "EPOCH": "2025-12-21T22:04:13.136736", "MEAN_MOTION": 1.00271741, "ECCENTRICITY": 0.0002624, "INCLINATION": 0.011, "RA_OF_ASC_NODE": 290.5005, "ARG_OF_PERICENTER": 347.6878, "MEAN_ANOMALY": 209.5868, "EPHEMERIS_TYPE": 0, "CLASSIFICATION_TYPE": "U", "NORAD_CAT_ID": 37238, "ELEMENT_SET_NO": 999, "REV_AT_EPOCH": 5147, "BSTAR": 0, "MEAN_MOTION_DOT": 2.1e-07, "MEAN_MOTION_DDOT": 0}, "tle": {"line1": "1 37238U 10065B   25355.91959649  .00000021  00000+0  00000+0 0  9998", "line2": "2 37238   0.0110 290.5005 0002624 347.6878 209.5868  1.00271741 51473"}}, "geometry": {"type": "Point", "coordinates": [-54.383033546822816, -0.00873592348353585]}}, {"type": "Feature", "properties": {"norad_id": 37392, "name": "INTELSAT 28 (IS-28)", "group": "intelsat", "lat": 1.122659167151217, "lon": -152.12523151056493, "alt_km": 35780.392014512014, "timestamp": "2025-12-22T09:53:37.074080+00:00", "meta": {"OBJECT_NAME": "INTELSAT 28 (IS-28)", "OBJECT_ID": "2011-016A", "EPOCH": "2025-12-22T02:44:30.513120", "MEAN_MOTION": 1.00269329, "ECCENTRICITY": 0.0003722, "INCLINATION": 1.3473, "RA_OF_ASC_NODE": 84.9549, "ARG_OF_PERICENTER": 189.5733, "MEAN_ANOMALY": 185.8154, "EPHEMERIS_TYPE": 0, "CLASSIFICATION_TYPE": "U", "NORAD_CAT_ID": 37392, "ELEMENT_SET_NO": 999, "REV_AT_EPOCH": 5151, "BSTAR": 0, "MEAN_MOTION_DOT": -2.04e-06, "MEAN_MOTION_DDOT": 0}, "tle": {"line1": "1 37392U 11016A   25356.11424205 -.00000204  00000+0  00000+0 0  9998", "line2": "2 37392   1.3473  84.9549 0003722 189.5733 185.8154  1.00269329 51519"}}, "geometry": {"type": "Point", "coordinates": [-152.12523151056493, 1.122659167151217]}}]}